CCSDS_OMM_VERS = 2.0
CREATION_DATE  = 
ORIGINATOR     = 

OBJECT_NAME    = SHENZHOU-21 (SZ-21)
OBJECT_ID      = 2025-246A
CENTER_NAME    = EARTH
REF_FRAME      = TEME
TIME_SYSTEM    = UTC
MEAN_ELEMENT_THEORY = SGP/SGP4

EPOCH          = 2025-11-13T02:51:05.294592
MEAN_MOTION    = 15.61083744
ECCENTRICITY   = .00040558
INCLINATION    = 41.4653
RA_OF_ASC_NODE = 196.4910
ARG_OF_PERICENTER = 16.3681
MEAN_ANOMALY   = 343.7288

EPHEMERIS_TYPE = 0
CLASSIFICATION_TYPE = U
NORAD_CAT_ID   = 66263
ELEMENT_SET_NO = 999
REV_AT_EPOCH   = 25813
BSTAR          = .51888494E-3
MEAN_MOTION_DOT = .44921E-3
MEAN_MOTION_DDOT = 0

