SHENZHOU-21 (SZ-21)     
1 66263U 25246A   25317.11881128  .00044921  00000+0  51888-3 0  9992
2 66263  41.4653 196.4910 0004055  16.3681 343.7288 15.61083744258130
